,name,categories,distance,latitude,longitude,address
0,Radical Road Brewing Co,"[{'id': 13029, 'name': 'Brewery', 'icon': {'prefix': 'https://ss3.4sqi.net/img/categories_v2/food/brewery_', 'suffix': '.png'}}, {'id': 13065, 'name': 'Restaurant', 'icon': {'prefix': 'https://ss3.4sqi.net/img/categories_v2/food/default_', 'suffix': '.png'}}]",9,43.662519,-79.332532,1177 Queen St E
1,Le Select Bistro,"[{'id': 13025, 'name': 'Wine Bar', 'icon': {'prefix': 'https://ss3.4sqi.net/img/categories_v2/food/winery_', 'suffix': '.png'}}, {'id': 13027, 'name': 'Bistro', 'icon': {'prefix': 'https://ss3.4sqi.net/img/categories_v2/food/default_', 'suffix': '.png'}}, {'id': 13148, 'name': 'French Restaurant', 'icon': {'prefix': 'https://ss3.4sqi.net/img/categories_v2/food/french_', 'suffix': '.png'}}]",15,43.643777,-79.39683,432 Wellington St W
2,The 3 Brewers,"[{'id': 13006, 'name': 'Beer Bar', 'icon': {'prefix': 'https://ss3.4sqi.net/img/categories_v2/nightlife/pub_', 'suffix': '.png'}}, {'id': 13068, 'name': 'American Restaurant', 'icon': {'prefix': 'https://ss3.4sqi.net/img/categories_v2/food/default_', 'suffix': '.png'}}]",19,43.655472,-79.380321,275 Yonge St
3,Birroteca,"[{'id': 13029, 'name': 'Brewery', 'icon': {'prefix': 'https://ss3.4sqi.net/img/categories_v2/food/brewery_', 'suffix': '.png'}}]",19,43.669432,-79.38909,55 Bloor St W
4,Beer Store,"[{'id': 17058, 'name': 'Beer Store', 'icon': {'prefix': 'https://ss3.4sqi.net/img/categories_v2/nightlife/beergarden_', 'suffix': '.png'}}]",21,43.667288,-79.345024,800 Gerrard St E
5,WVRST,"[{'id': 13006, 'name': 'Beer Bar', 'icon': {'prefix': 'https://ss3.4sqi.net/img/categories_v2/nightlife/pub_', 'suffix': '.png'}}, {'id': 13058, 'name': 'Hot Dog Joint', 'icon': {'prefix': 'https://ss3.4sqi.net/img/categories_v2/food/hotdog_', 'suffix': '.png'}}, {'id': 13165, 'name': 'German Restaurant', 'icon': {'prefix': 'https://ss3.4sqi.net/img/categories_v2/food/german_', 'suffix': '.png'}}]",21,43.644181,-79.40054,609 King St W
6,The Rose & Crown,"[{'id': 13018, 'name': 'Pub', 'icon': {'prefix': 'https://ss3.4sqi.net/img/categories_v2/nightlife/pub_', 'suffix': '.png'}}, {'id': 13049, 'name': 'Diner', 'icon': {'prefix': 'https://ss3.4sqi.net/img/categories_v2/food/diner_', 'suffix': '.png'}}]",25,43.708506,-79.398503,2335 Yonge St
7,Labatt Brewing Company Ltd,"[{'id': 13029, 'name': 'Brewery', 'icon': {'prefix': 'https://ss3.4sqi.net/img/categories_v2/food/brewery_', 'suffix': '.png'}}, {'id': 17000, 'name': 'Retail', 'icon': {'prefix': 'https://ss3.4sqi.net/img/categories_v2/shops/default_', 'suffix': '.png'}}]",28,43.639224,-79.425455,1183 King St W
8,Peniche Community Club of Toronto,"[{'id': 10032, 'name': 'Night Club', 'icon': {'prefix': 'https://ss3.4sqi.net/img/categories_v2/nightlife/nightclub_', 'suffix': '.png'}}, {'id': 13029, 'name': 'Brewery', 'icon': {'prefix': 'https://ss3.4sqi.net/img/categories_v2/food/brewery_', 'suffix': '.png'}}]",29,43.651516,-79.43855,1264 College St
9,Five Points Bar and Grill,"[{'id': 13006, 'name': 'Beer Bar', 'icon': {'prefix': 'https://ss3.4sqi.net/img/categories_v2/nightlife/pub_', 'suffix': '.png'}}, {'id': 13065, 'name': 'Restaurant', 'icon': {'prefix': 'https://ss3.4sqi.net/img/categories_v2/food/default_', 'suffix': '.png'}}]",29,43.692796,-79.441479,636 Vaughan Rd
10,Jack Astor's,"[{'id': 13065, 'name': 'Restaurant', 'icon': {'prefix': 'https://ss3.4sqi.net/img/categories_v2/food/default_', 'suffix': '.png'}}, {'id': 13003, 'name': 'Bar', 'icon': {'prefix': 'https://ss3.4sqi.net/img/categories_v2/nightlife/pub_', 'suffix': '.png'}}]",29,43.656641,-79.38046,10 Dundas St E
11,Old Flame Brewing Co,"[{'id': 13029, 'name': 'Brewery', 'icon': {'prefix': 'https://ss3.4sqi.net/img/categories_v2/food/brewery_', 'suffix': '.png'}}]",30,43.651051,-79.357646,43 Tankhouse Lane
12,Avling,"[{'id': 13003, 'name': 'Bar', 'icon': {'prefix': 'https://ss3.4sqi.net/img/categories_v2/nightlife/pub_', 'suffix': '.png'}}, {'id': 13029, 'name': 'Brewery', 'icon': {'prefix': 'https://ss3.4sqi.net/img/categories_v2/food/brewery_', 'suffix': '.png'}}, {'id': 13065, 'name': 'Restaurant', 'icon': {'prefix': 'https://ss3.4sqi.net/img/categories_v2/food/default_', 'suffix': '.png'}}]",31,43.661655,-79.338287,1042 Queen St E
13,Bar Hop,"[{'id': 13006, 'name': 'Beer Bar', 'icon': {'prefix': 'https://ss3.4sqi.net/img/categories_v2/nightlife/pub_', 'suffix': '.png'}}, {'id': 13065, 'name': 'Restaurant', 'icon': {'prefix': 'https://ss3.4sqi.net/img/categories_v2/food/default_', 'suffix': '.png'}}]",32,43.645579,-79.393658,391 King St W
14,Bloor Brewery Inc,"[{'id': 13029, 'name': 'Brewery', 'icon': {'prefix': 'https://ss3.4sqi.net/img/categories_v2/food/brewery_', 'suffix': '.png'}}]",36,43.669951,-79.387349,2 Bloor St W
15,Steam Whistle Brewing,"[{'id': 13029, 'name': 'Brewery', 'icon': {'prefix': 'https://ss3.4sqi.net/img/categories_v2/food/brewery_', 'suffix': '.png'}}, {'id': 13065, 'name': 'Restaurant', 'icon': {'prefix': 'https://ss3.4sqi.net/img/categories_v2/food/default_', 'suffix': '.png'}}]",37,43.641025,-79.385267,255 Bremner Blvd
16,Nadia's Loving Pet Services Harbourfront,"[{'id': 11133, 'name': 'Pet Service', 'icon': {'prefix': 'https://ss3.4sqi.net/img/categories_v2/shops/pet_store_', 'suffix': '.png'}}, {'id': 13029, 'name': 'Brewery', 'icon': {'prefix': 'https://ss3.4sqi.net/img/categories_v2/food/brewery_', 'suffix': '.png'}}]",38,43.640563,-79.3808,8 York St
17,Rogers Centre,"[{'id': 10051, 'name': 'Stadium', 'icon': {'prefix': 'https://ss3.4sqi.net/img/categories_v2/arts_entertainment/stadium_', 'suffix': '.png'}}]",41,43.641113,-79.38967,1 Blue Jays Way
18,Burdock,"[{'id': 13029, 'name': 'Brewery', 'icon': {'prefix': 'https://ss3.4sqi.net/img/categories_v2/food/brewery_', 'suffix': '.png'}}]",42,43.653999,-79.402154,6 Denison Sq
19,Beer Store,"[{'id': 17058, 'name': 'Beer Store', 'icon': {'prefix': 'https://ss3.4sqi.net/img/categories_v2/nightlife/beergarden_', 'suffix': '.png'}}]",43,43.666252,-79.38185,572 Church St
20,Local Liberty Village,"[{'id': 13314, 'name': 'New American Restaurant', 'icon': {'prefix': 'https://ss3.4sqi.net/img/categories_v2/food/newamerican_', 'suffix': '.png'}}, {'id': 13065, 'name': 'Restaurant', 'icon': {'prefix': 'https://ss3.4sqi.net/img/categories_v2/food/default_', 'suffix': '.png'}}]",44,43.638448,-79.419162,171 E Liberty St
21,Indie Alehouse Barrel House,"[{'id': 13029, 'name': 'Brewery', 'icon': {'prefix': 'https://ss3.4sqi.net/img/categories_v2/food/brewery_', 'suffix': '.png'}}]",45,43.669873,-79.436257,165 Geary Ave
22,Eastbound Brewing Co,"[{'id': 13003, 'name': 'Bar', 'icon': {'prefix': 'https://ss3.4sqi.net/img/categories_v2/nightlife/pub_', 'suffix': '.png'}}, {'id': 13029, 'name': 'Brewery', 'icon': {'prefix': 'https://ss3.4sqi.net/img/categories_v2/food/brewery_', 'suffix': '.png'}}, {'id': 13057, 'name': 'Gastropub', 'icon': {'prefix': 'https://ss3.4sqi.net/img/categories_v2/food/gastropub_', 'suffix': '.png'}}]",45,43.659005,-79.350118,700 Queen St E
23,Bar Hop Brewco,"[{'id': 13006, 'name': 'Beer Bar', 'icon': {'prefix': 'https://ss3.4sqi.net/img/categories_v2/nightlife/pub_', 'suffix': '.png'}}, {'id': 13057, 'name': 'Gastropub', 'icon': {'prefix': 'https://ss3.4sqi.net/img/categories_v2/food/gastropub_', 'suffix': '.png'}}, {'id': 13152, 'name': 'Brasserie', 'icon': {'prefix': 'https://ss3.4sqi.net/img/categories_v2/food/french_', 'suffix': '.png'}}]",47,43.649093,-79.39319,137 Peter St
24,Longslice Brewery,"[{'id': 13029, 'name': 'Brewery', 'icon': {'prefix': 'https://ss3.4sqi.net/img/categories_v2/food/brewery_', 'suffix': '.png'}}]",48,43.653525,-79.354485,484 Front St E
25,Goose Island Brew House - Toronto,"[{'id': 13006, 'name': 'Beer Bar', 'icon': {'prefix': 'https://ss3.4sqi.net/img/categories_v2/nightlife/pub_', 'suffix': '.png'}}, {'id': 13065, 'name': 'Restaurant', 'icon': {'prefix': 'https://ss3.4sqi.net/img/categories_v2/food/default_', 'suffix': '.png'}}]",48,43.647367,-79.373656,70 the Esplanade
26,La Palette,"[{'id': 13148, 'name': 'French Restaurant', 'icon': {'prefix': 'https://ss3.4sqi.net/img/categories_v2/food/french_', 'suffix': '.png'}}]",50,43.647902,-79.401087,492 Queen St W
27,Northern Maverick Brewing Co,"[{'id': 13029, 'name': 'Brewery', 'icon': {'prefix': 'https://ss3.4sqi.net/img/categories_v2/food/brewery_', 'suffix': '.png'}}, {'id': 13065, 'name': 'Restaurant', 'icon': {'prefix': 'https://ss3.4sqi.net/img/categories_v2/food/default_', 'suffix': '.png'}}]",50,43.644967,-79.402863,115 Bathurst St
28,Blood Brothers Brewing,"[{'id': 13029, 'name': 'Brewery', 'icon': {'prefix': 'https://ss3.4sqi.net/img/categories_v2/food/brewery_', 'suffix': '.png'}}]",51,43.669939,-79.436128,165 Geary Ave
29,Castro's Lounge,"[{'id': 13009, 'name': 'Cocktail Bar', 'icon': {'prefix': 'https://ss3.4sqi.net/img/categories_v2/nightlife/cocktails_', 'suffix': '.png'}}, {'id': 13016, 'name': 'Lounge', 'icon': {'prefix': 'https://ss3.4sqi.net/img/categories_v2/nightlife/default_', 'suffix': '.png'}}, {'id': 13068, 'name': 'American Restaurant', 'icon': {'prefix': 'https://ss3.4sqi.net/img/categories_v2/food/default_', 'suffix': '.png'}}]",55,43.671221,-79.295045,2116 E Queen St E
30,Lcbo,"[{'id': 17076, 'name': 'Liquor Store', 'icon': {'prefix': 'https://ss3.4sqi.net/img/categories_v2/shops/food_liquor_', 'suffix': '.png'}}]",57,43.676879,-79.356038,200 Danforth Ave
31,Something in the Water Brewing,"[{'id': 13029, 'name': 'Brewery', 'icon': {'prefix': 'https://ss3.4sqi.net/img/categories_v2/food/brewery_', 'suffix': '.png'}}]",58,43.638413,-79.417333,151 E Liberty St
32,Razabrewing,"[{'id': 13029, 'name': 'Brewery', 'icon': {'prefix': 'https://ss3.4sqi.net/img/categories_v2/food/brewery_', 'suffix': '.png'}}]",60,43.651023,-79.450673,403 Roncesvalles Ave
33,Duke of Kent,"[{'id': 13018, 'name': 'Pub', 'icon': {'prefix': 'https://ss3.4sqi.net/img/categories_v2/nightlife/pub_', 'suffix': '.png'}}, {'id': 13065, 'name': 'Restaurant', 'icon': {'prefix': 'https://ss3.4sqi.net/img/categories_v2/food/default_', 'suffix': '.png'}}]",61,43.707899,-79.398359,2315 Yonge St
34,Fermentations,"[{'id': 17058, 'name': 'Beer Store', 'icon': {'prefix': 'https://ss3.4sqi.net/img/categories_v2/nightlife/beergarden_', 'suffix': '.png'}}, {'id': 17076, 'name': 'Liquor Store', 'icon': {'prefix': 'https://ss3.4sqi.net/img/categories_v2/shops/food_liquor_', 'suffix': '.png'}}, {'id': 17080, 'name': 'Wine Store', 'icon': {'prefix': 'https://ss3.4sqi.net/img/categories_v2/shops/food_wineshop_', 'suffix': '.png'}}]",62,43.676591,-79.356132,201 Danforth Ave
35,The Roy Public House,"[{'id': 13003, 'name': 'Bar', 'icon': {'prefix': 'https://ss3.4sqi.net/img/categories_v2/nightlife/pub_', 'suffix': '.png'}}, {'id': 13031, 'name': 'Burger Joint', 'icon': {'prefix': 'https://ss3.4sqi.net/img/categories_v2/food/burger_', 'suffix': '.png'}}]",63,43.660524,-79.343064,894 Queen St E
36,Sin and Redemption,"[{'id': 13003, 'name': 'Bar', 'icon': {'prefix': 'https://ss3.4sqi.net/img/categories_v2/nightlife/pub_', 'suffix': '.png'}}, {'id': 13077, 'name': 'Belgian Restaurant', 'icon': {'prefix': 'https://ss3.4sqi.net/img/categories_v2/food/default_', 'suffix': '.png'}}]",66,43.654588,-79.391728,136 McCaul St
37,Henderson Brewing Co,"[{'id': 13029, 'name': 'Brewery', 'icon': {'prefix': 'https://ss3.4sqi.net/img/categories_v2/food/brewery_', 'suffix': '.png'}}, {'id': 13065, 'name': 'Restaurant', 'icon': {'prefix': 'https://ss3.4sqi.net/img/categories_v2/food/default_', 'suffix': '.png'}}]",66,43.653662,-79.4453,128A Sterling Rd
38,Young Centre for the Performing Arts,"[{'id': 10039, 'name': 'Music Venue', 'icon': {'prefix': 'https://ss3.4sqi.net/img/categories_v2/arts_entertainment/musicvenue_', 'suffix': '.png'}}]",69,43.650888,-79.357573,50 Tank House Lane
39,Stefan's,"[{'id': 13006, 'name': 'Beer Bar', 'icon': {'prefix': 'https://ss3.4sqi.net/img/categories_v2/nightlife/pub_', 'suffix': '.png'}}]",71,43.694861,-79.454726,Eglinton Ave W
40,Red Tape Brewery,"[{'id': 13029, 'name': 'Brewery', 'icon': {'prefix': 'https://ss3.4sqi.net/img/categories_v2/food/brewery_', 'suffix': '.png'}}]",74,43.683754,-79.299934,159 Main St
41,Bang Sue Bar,"[{'id': 13006, 'name': 'Beer Bar', 'icon': {'prefix': 'https://ss3.4sqi.net/img/categories_v2/nightlife/pub_', 'suffix': '.png'}}, {'id': 13009, 'name': 'Cocktail Bar', 'icon': {'prefix': 'https://ss3.4sqi.net/img/categories_v2/nightlife/cocktails_', 'suffix': '.png'}}, {'id': 13352, 'name': 'Thai Restaurant', 'icon': {'prefix': 'https://ss3.4sqi.net/img/categories_v2/food/thai_', 'suffix': '.png'}}]",74,43.646428,-79.39356,11 Charlotte St
42,Town Crier Pub,"[{'id': 13018, 'name': 'Pub', 'icon': {'prefix': 'https://ss3.4sqi.net/img/categories_v2/nightlife/pub_', 'suffix': '.png'}}, {'id': 13074, 'name': 'Austrian Restaurant', 'icon': {'prefix': 'https://ss3.4sqi.net/img/categories_v2/food/austrian_', 'suffix': '.png'}}]",76,43.648185,-79.39024,115 John St
43,Beer Store,"[{'id': 17058, 'name': 'Beer Store', 'icon': {'prefix': 'https://ss3.4sqi.net/img/categories_v2/nightlife/beergarden_', 'suffix': '.png'}}]",78,43.680529,-79.282663,1089 Kingston Rd
44,The Dylan Bar,"[{'id': 13006, 'name': 'Beer Bar', 'icon': {'prefix': 'https://ss3.4sqi.net/img/categories_v2/nightlife/pub_', 'suffix': '.png'}}, {'id': 13347, 'name': 'Tapas Restaurant', 'icon': {'prefix': 'https://ss3.4sqi.net/img/categories_v2/food/tapas_', 'suffix': '.png'}}]",78,43.681974,-79.330556,1276 Danforth Ave
45,GLB Brewpub,"[{'id': 13029, 'name': 'Brewery', 'icon': {'prefix': 'https://ss3.4sqi.net/img/categories_v2/food/brewery_', 'suffix': '.png'}}]",80,43.645089,-79.369461,11 Lower Jarvis St
46,The Garden Pub,"[{'id': 13029, 'name': 'Brewery', 'icon': {'prefix': 'https://ss3.4sqi.net/img/categories_v2/food/brewery_', 'suffix': '.png'}}]",80,43.647803,-79.374613,37 Front St E
47,Beer Store,"[{'id': 17058, 'name': 'Beer Store', 'icon': {'prefix': 'https://ss3.4sqi.net/img/categories_v2/nightlife/beergarden_', 'suffix': '.png'}}]",81,43.666383,-79.45099,323 Symington Ave
48,Collective Arts,"[{'id': 13029, 'name': 'Brewery', 'icon': {'prefix': 'https://ss3.4sqi.net/img/categories_v2/food/brewery_', 'suffix': '.png'}}]",81,43.651873,-79.407471,777 Dundas St W
49,By the Way Cafe,"[{'id': 13049, 'name': 'Diner', 'icon': {'prefix': 'https://ss3.4sqi.net/img/categories_v2/food/diner_', 'suffix': '.png'}}, {'id': 13302, 'name': 'Mediterranean Restaurant', 'icon': {'prefix': 'https://ss3.4sqi.net/img/categories_v2/food/mediterranean_', 'suffix': '.png'}}, {'id': 13309, 'name': 'Middle Eastern Restaurant', 'icon': {'prefix': 'https://ss3.4sqi.net/img/categories_v2/food/middleeastern_', 'suffix': '.png'}}]",82,43.666005,-79.407671,400 Bloor St W
50,Beast Restaurant,"[{'id': 13068, 'name': 'American Restaurant', 'icon': {'prefix': 'https://ss3.4sqi.net/img/categories_v2/food/default_', 'suffix': '.png'}}]",83,43.644131,-79.405861,96 Tecumseth St
51,Liberty Commons at Big Rock Brewery,"[{'id': 13018, 'name': 'Pub', 'icon': {'prefix': 'https://ss3.4sqi.net/img/categories_v2/nightlife/pub_', 'suffix': '.png'}}, {'id': 13029, 'name': 'Brewery', 'icon': {'prefix': 'https://ss3.4sqi.net/img/categories_v2/food/brewery_', 'suffix': '.png'}}, {'id': 13065, 'name': 'Restaurant', 'icon': {'prefix': 'https://ss3.4sqi.net/img/categories_v2/food/default_', 'suffix': '.png'}}]",84,43.638425,-79.421027,42 Liberty St
52,Beer Bistro,"[{'id': 13027, 'name': 'Bistro', 'icon': {'prefix': 'https://ss3.4sqi.net/img/categories_v2/food/default_', 'suffix': '.png'}}, {'id': 13057, 'name': 'Gastropub', 'icon': {'prefix': 'https://ss3.4sqi.net/img/categories_v2/food/gastropub_', 'suffix': '.png'}}, {'id': 13077, 'name': 'Belgian Restaurant', 'icon': {'prefix': 'https://ss3.4sqi.net/img/categories_v2/food/default_', 'suffix': '.png'}}]",84,43.649463,-79.377261,18 King St E
53,Stefansplatz,"[{'id': 13029, 'name': 'Brewery', 'icon': {'prefix': 'https://ss3.4sqi.net/img/categories_v2/food/brewery_', 'suffix': '.png'}}]",85,43.655146,-79.390228,195 Saint Patrick St
54,Allen's,"[{'id': 13031, 'name': 'Burger Joint', 'icon': {'prefix': 'https://ss3.4sqi.net/img/categories_v2/food/burger_', 'suffix': '.png'}}, {'id': 13049, 'name': 'Diner', 'icon': {'prefix': 'https://ss3.4sqi.net/img/categories_v2/food/diner_', 'suffix': '.png'}}, {'id': 13068, 'name': 'American Restaurant', 'icon': {'prefix': 'https://ss3.4sqi.net/img/categories_v2/food/default_', 'suffix': '.png'}}]",86,43.6764,-79.357225,143 Danforth Ave
55,Beer Store,"[{'id': 17058, 'name': 'Beer Store', 'icon': {'prefix': 'https://ss3.4sqi.net/img/categories_v2/nightlife/beergarden_', 'suffix': '.png'}}]",87,43.650446,-79.360589,41 Mill St
56,Godspeed Brewery,"[{'id': 13003, 'name': 'Bar', 'icon': {'prefix': 'https://ss3.4sqi.net/img/categories_v2/nightlife/pub_', 'suffix': '.png'}}, {'id': 13029, 'name': 'Brewery', 'icon': {'prefix': 'https://ss3.4sqi.net/img/categories_v2/food/brewery_', 'suffix': '.png'}}, {'id': 13065, 'name': 'Restaurant', 'icon': {'prefix': 'https://ss3.4sqi.net/img/categories_v2/food/default_', 'suffix': '.png'}}]",87,43.672563,-79.319341,242 Coxwell Ave
57,The Beer Store,"[{'id': 17058, 'name': 'Beer Store', 'icon': {'prefix': 'https://ss3.4sqi.net/img/categories_v2/nightlife/beergarden_', 'suffix': '.png'}}]",88,43.613477,-79.489677,2458 Lake Shore Blvd W
58,The Only Cafe,"[{'id': 13006, 'name': 'Beer Bar', 'icon': {'prefix': 'https://ss3.4sqi.net/img/categories_v2/nightlife/pub_', 'suffix': '.png'}}, {'id': 13010, 'name': 'Dive Bar', 'icon': {'prefix': 'https://ss3.4sqi.net/img/categories_v2/nightlife/divebar_', 'suffix': '.png'}}, {'id': 13302, 'name': 'Mediterranean Restaurant', 'icon': {'prefix': 'https://ss3.4sqi.net/img/categories_v2/food/mediterranean_', 'suffix': '.png'}}]",88,43.680441,-79.337798,972 Danforth Ave
59,Mascot Brewery Beer Garden,"[{'id': 13029, 'name': 'Brewery', 'icon': {'prefix': 'https://ss3.4sqi.net/img/categories_v2/food/brewery_', 'suffix': '.png'}}]",90,43.647355,-79.386976,220 King St E
60,Louis Cifer Brew Works,"[{'id': 13029, 'name': 'Brewery', 'icon': {'prefix': 'https://ss3.4sqi.net/img/categories_v2/food/brewery_', 'suffix': '.png'}}, {'id': 13057, 'name': 'Gastropub', 'icon': {'prefix': 'https://ss3.4sqi.net/img/categories_v2/food/gastropub_', 'suffix': '.png'}}, {'id': 13068, 'name': 'American Restaurant', 'icon': {'prefix': 'https://ss3.4sqi.net/img/categories_v2/food/default_', 'suffix': '.png'}}]",91,43.677514,-79.351134,417 Danforth Ave
61,Brewing Brokers,"[{'id': 13029, 'name': 'Brewery', 'icon': {'prefix': 'https://ss3.4sqi.net/img/categories_v2/food/brewery_', 'suffix': '.png'}}]",91,43.725882,-79.40212,3153 Yonge St
62,Bandit Brewery,"[{'id': 13029, 'name': 'Brewery', 'icon': {'prefix': 'https://ss3.4sqi.net/img/categories_v2/food/brewery_', 'suffix': '.png'}}, {'id': 13065, 'name': 'Restaurant', 'icon': {'prefix': 'https://ss3.4sqi.net/img/categories_v2/food/default_', 'suffix': '.png'}}]",92,43.652671,-79.449629,2125 Dundas St W
63,Steadfast Brewing,"[{'id': 13029, 'name': 'Brewery', 'icon': {'prefix': 'https://ss3.4sqi.net/img/categories_v2/food/brewery_', 'suffix': '.png'}}]",93,43.650724,-79.439405,301 Lansdowne Ave
64,Burdock,"[{'id': 10039, 'name': 'Music Venue', 'icon': {'prefix': 'https://ss3.4sqi.net/img/categories_v2/arts_entertainment/musicvenue_', 'suffix': '.png'}}, {'id': 13006, 'name': 'Beer Bar', 'icon': {'prefix': 'https://ss3.4sqi.net/img/categories_v2/nightlife/pub_', 'suffix': '.png'}}, {'id': 13065, 'name': 'Restaurant', 'icon': {'prefix': 'https://ss3.4sqi.net/img/categories_v2/food/default_', 'suffix': '.png'}}]",93,43.659485,-79.437818,1184 Bloor St W
65,Beer Store,"[{'id': 17058, 'name': 'Beer Store', 'icon': {'prefix': 'https://ss3.4sqi.net/img/categories_v2/nightlife/beergarden_', 'suffix': '.png'}}]",95,43.693673,-79.441012,529 Oakwood Ave
66,House on Parliament,"[{'id': 13003, 'name': 'Bar', 'icon': {'prefix': 'https://ss3.4sqi.net/img/categories_v2/nightlife/pub_', 'suffix': '.png'}}, {'id': 13057, 'name': 'Gastropub', 'icon': {'prefix': 'https://ss3.4sqi.net/img/categories_v2/food/gastropub_', 'suffix': '.png'}}, {'id': 13068, 'name': 'American Restaurant', 'icon': {'prefix': 'https://ss3.4sqi.net/img/categories_v2/food/default_', 'suffix': '.png'}}]",97,43.663671,-79.367878,454 Parliament St
67,O'Grady's Restaurant,"[{'id': 13003, 'name': 'Bar', 'icon': {'prefix': 'https://ss3.4sqi.net/img/categories_v2/nightlife/pub_', 'suffix': '.png'}}, {'id': 13049, 'name': 'Diner', 'icon': {'prefix': 'https://ss3.4sqi.net/img/categories_v2/food/diner_', 'suffix': '.png'}}, {'id': 13068, 'name': 'American Restaurant', 'icon': {'prefix': 'https://ss3.4sqi.net/img/categories_v2/food/default_', 'suffix': '.png'}}]",98,43.664491,-79.380587,518 Church St
68,Bar Hop Session,"[{'id': 13006, 'name': 'Beer Bar', 'icon': {'prefix': 'https://ss3.4sqi.net/img/categories_v2/nightlife/pub_', 'suffix': '.png'}}, {'id': 13065, 'name': 'Restaurant', 'icon': {'prefix': 'https://ss3.4sqi.net/img/categories_v2/food/default_', 'suffix': '.png'}}]",100,43.678877,-79.343912,681 Danforth Ave
69,Drake Lounge,"[{'id': 13016, 'name': 'Lounge', 'icon': {'prefix': 'https://ss3.4sqi.net/img/categories_v2/nightlife/default_', 'suffix': '.png'}}]",101,43.643275,-79.424561,1150 Queen St W
70,Jack Astor’s,"[{'id': 13065, 'name': 'Restaurant', 'icon': {'prefix': 'https://ss3.4sqi.net/img/categories_v2/food/default_', 'suffix': '.png'}}, {'id': 13003, 'name': 'Bar', 'icon': {'prefix': 'https://ss3.4sqi.net/img/categories_v2/nightlife/pub_', 'suffix': '.png'}}]",103,43.670834,-79.386788,2 Bloor St E
71,The Queen and Beaver Public House,"[{'id': 13003, 'name': 'Bar', 'icon': {'prefix': 'https://ss3.4sqi.net/img/categories_v2/nightlife/pub_', 'suffix': '.png'}}, {'id': 13057, 'name': 'Gastropub', 'icon': {'prefix': 'https://ss3.4sqi.net/img/categories_v2/food/gastropub_', 'suffix': '.png'}}]",104,43.65738,-79.38343,35 Elm St
72,Burdock Bottle Shop,"[{'id': 17058, 'name': 'Beer Store', 'icon': {'prefix': 'https://ss3.4sqi.net/img/categories_v2/nightlife/beergarden_', 'suffix': '.png'}}]",106,43.659485,-79.437818,1184 Bloor St W
73,Lcbo,"[{'id': 17069, 'name': 'Grocery Store', 'icon': {'prefix': 'https://ss3.4sqi.net/img/categories_v2/shops/food_grocery_', 'suffix': '.png'}}, {'id': 17076, 'name': 'Liquor Store', 'icon': {'prefix': 'https://ss3.4sqi.net/img/categories_v2/shops/food_liquor_', 'suffix': '.png'}}, {'id': 17080, 'name': 'Wine Store', 'icon': {'prefix': 'https://ss3.4sqi.net/img/categories_v2/shops/food_wineshop_', 'suffix': '.png'}}]",106,43.651189,-79.365054,222 Front St E
74,Brewhaha Craft Beer Lounge,"[{'id': 13006, 'name': 'Beer Bar', 'icon': {'prefix': 'https://ss3.4sqi.net/img/categories_v2/nightlife/pub_', 'suffix': '.png'}}]",108,43.669174,-79.39728,39 Prince Arthur Ave
75,Rhino Bar & Grill Inc,"[{'id': 13003, 'name': 'Bar', 'icon': {'prefix': 'https://ss3.4sqi.net/img/categories_v2/nightlife/pub_', 'suffix': '.png'}}, {'id': 13068, 'name': 'American Restaurant', 'icon': {'prefix': 'https://ss3.4sqi.net/img/categories_v2/food/default_', 'suffix': '.png'}}]",108,43.641714,-79.430575,1249 Queen St W
76,St. Louis Bar and Grill,"[{'id': 13003, 'name': 'Bar', 'icon': {'prefix': 'https://ss3.4sqi.net/img/categories_v2/nightlife/pub_', 'suffix': '.png'}}, {'id': 13022, 'name': 'Sports Bar', 'icon': {'prefix': 'https://ss3.4sqi.net/img/categories_v2/nightlife/sportsbar_', 'suffix': '.png'}}]",108,43.701556,-79.397534,2050 Yonge St
77,Beer Store,"[{'id': 17058, 'name': 'Beer Store', 'icon': {'prefix': 'https://ss3.4sqi.net/img/categories_v2/nightlife/beergarden_', 'suffix': '.png'}}]",110,43.65245,-79.449593,2135 Dundas St W
78,Bottega Volo,"[{'id': 17058, 'name': 'Beer Store', 'icon': {'prefix': 'https://ss3.4sqi.net/img/categories_v2/nightlife/beergarden_', 'suffix': '.png'}}]",115,43.655168,-79.414637,608 College St
79,Goodfellas Wood Oven Pizza,"[{'id': 13064, 'name': 'Pizzeria', 'icon': {'prefix': 'https://ss3.4sqi.net/img/categories_v2/food/pizza_', 'suffix': '.png'}}, {'id': 13236, 'name': 'Italian Restaurant', 'icon': {'prefix': 'https://ss3.4sqi.net/img/categories_v2/food/italian_', 'suffix': '.png'}}]",116,43.64835,-79.486381,1 Old Mill Dr
80,Crafty Coyote,"[{'id': 13006, 'name': 'Beer Bar', 'icon': {'prefix': 'https://ss3.4sqi.net/img/categories_v2/nightlife/pub_', 'suffix': '.png'}}, {'id': 13065, 'name': 'Restaurant', 'icon': {'prefix': 'https://ss3.4sqi.net/img/categories_v2/food/default_', 'suffix': '.png'}}]",119,43.665421,-79.408747,511 Bloor St W
81,Birreria Volo,"[{'id': 13006, 'name': 'Beer Bar', 'icon': {'prefix': 'https://ss3.4sqi.net/img/categories_v2/nightlife/pub_', 'suffix': '.png'}}, {'id': 13347, 'name': 'Tapas Restaurant', 'icon': {'prefix': 'https://ss3.4sqi.net/img/categories_v2/food/tapas_', 'suffix': '.png'}}]",120,43.65522,-79.414692,612 College St
82,Halo Brewery,"[{'id': 13006, 'name': 'Beer Bar', 'icon': {'prefix': 'https://ss3.4sqi.net/img/categories_v2/nightlife/pub_', 'suffix': '.png'}}, {'id': 13029, 'name': 'Brewery', 'icon': {'prefix': 'https://ss3.4sqi.net/img/categories_v2/food/brewery_', 'suffix': '.png'}}, {'id': 13065, 'name': 'Restaurant', 'icon': {'prefix': 'https://ss3.4sqi.net/img/categories_v2/food/default_', 'suffix': '.png'}}]",121,43.661711,-79.446545,247 Wallace Ave
83,Mill Street Brew Pub,"[{'id': 13018, 'name': 'Pub', 'icon': {'prefix': 'https://ss3.4sqi.net/img/categories_v2/nightlife/pub_', 'suffix': '.png'}}, {'id': 13029, 'name': 'Brewery', 'icon': {'prefix': 'https://ss3.4sqi.net/img/categories_v2/food/brewery_', 'suffix': '.png'}}, {'id': 13077, 'name': 'Belgian Restaurant', 'icon': {'prefix': 'https://ss3.4sqi.net/img/categories_v2/food/default_', 'suffix': '.png'}}]",123,43.650541,-79.3585,21 Tank House Lane
84,Kensington Brewing Co,"[{'id': 13003, 'name': 'Bar', 'icon': {'prefix': 'https://ss3.4sqi.net/img/categories_v2/nightlife/pub_', 'suffix': '.png'}}, {'id': 13029, 'name': 'Brewery', 'icon': {'prefix': 'https://ss3.4sqi.net/img/categories_v2/food/brewery_', 'suffix': '.png'}}, {'id': 13065, 'name': 'Restaurant', 'icon': {'prefix': 'https://ss3.4sqi.net/img/categories_v2/food/default_', 'suffix': '.png'}}]",124,43.656441,-79.402543,299 Augusta Ave
85,Pukka,"[{'id': 13199, 'name': 'Indian Restaurant', 'icon': {'prefix': 'https://ss3.4sqi.net/img/categories_v2/food/indian_', 'suffix': '.png'}}]",124,43.68112163005123,-79.42925333976746,778 St Clair Ave W
86,Beer Store,"[{'id': 17058, 'name': 'Beer Store', 'icon': {'prefix': 'https://ss3.4sqi.net/img/categories_v2/nightlife/beergarden_', 'suffix': '.png'}}]",125,43.666276,-79.489229,3524 Dundas St W
87,Cass Avenue,"[{'id': 13006, 'name': 'Beer Bar', 'icon': {'prefix': 'https://ss3.4sqi.net/img/categories_v2/nightlife/pub_', 'suffix': '.png'}}]",126,43.707757,-79.394124,150 Eglinton Ave E
88,Yongehurst Distillery Co,"[{'id': 13003, 'name': 'Bar', 'icon': {'prefix': 'https://ss3.4sqi.net/img/categories_v2/nightlife/pub_', 'suffix': '.png'}}, {'id': 13029, 'name': 'Brewery', 'icon': {'prefix': 'https://ss3.4sqi.net/img/categories_v2/food/brewery_', 'suffix': '.png'}}, {'id': 13050, 'name': 'Distillery', 'icon': {'prefix': 'https://ss3.4sqi.net/img/categories_v2/food/brewery_', 'suffix': '.png'}}]",128,43.670772,-79.434718,346 Westmoreland Ave N
89,The House of Cran,"[{'id': 13029, 'name': 'Brewery', 'icon': {'prefix': 'https://ss3.4sqi.net/img/categories_v2/food/brewery_', 'suffix': '.png'}}]",128,43.692076,-79.314233,175 Coleridge Ave
90,Akira Back Toronto,"[{'id': 13263, 'name': 'Japanese Restaurant', 'icon': {'prefix': 'https://ss3.4sqi.net/img/categories_v2/food/japanese_', 'suffix': '.png'}}]",129,43.645275,-79.392441,80 Blue Jays Way
91,Stack,"[{'id': 13026, 'name': 'BBQ Joint', 'icon': {'prefix': 'https://ss3.4sqi.net/img/categories_v2/food/bbqalt_', 'suffix': '.png'}}, {'id': 13031, 'name': 'Burger Joint', 'icon': {'prefix': 'https://ss3.4sqi.net/img/categories_v2/food/burger_', 'suffix': '.png'}}, {'id': 13383, 'name': 'Steakhouse', 'icon': {'prefix': 'https://ss3.4sqi.net/img/categories_v2/food/steakhouse_', 'suffix': '.png'}}]",129,43.729291,-79.403133,3265 Yonge St
92,Bangkok Garden Restaurant,"[{'id': 13352, 'name': 'Thai Restaurant', 'icon': {'prefix': 'https://ss3.4sqi.net/img/categories_v2/food/thai_', 'suffix': '.png'}}]",130,43.657825,-79.382706,18 Elm St
93,Ontario Spring Water Sake Co,"[{'id': 13003, 'name': 'Bar', 'icon': {'prefix': 'https://ss3.4sqi.net/img/categories_v2/nightlife/pub_', 'suffix': '.png'}}, {'id': 13029, 'name': 'Brewery', 'icon': {'prefix': 'https://ss3.4sqi.net/img/categories_v2/food/brewery_', 'suffix': '.png'}}, {'id': 13050, 'name': 'Distillery', 'icon': {'prefix': 'https://ss3.4sqi.net/img/categories_v2/food/brewery_', 'suffix': '.png'}}]",130,43.649827,-79.359836,51 Gristmill Lane
94,CRAFT Beer Market Toronto,"[{'id': 13006, 'name': 'Beer Bar', 'icon': {'prefix': 'https://ss3.4sqi.net/img/categories_v2/nightlife/pub_', 'suffix': '.png'}}, {'id': 13065, 'name': 'Restaurant', 'icon': {'prefix': 'https://ss3.4sqi.net/img/categories_v2/food/default_', 'suffix': '.png'}}]",131,43.6502,-79.37794,1 Adelaide St E
95,Belgian Moon Brewery,"[{'id': 13029, 'name': 'Brewery', 'icon': {'prefix': 'https://ss3.4sqi.net/img/categories_v2/food/brewery_', 'suffix': '.png'}}]",132,43.640531,-79.40365,28 Bathurst St
96,Beer Store,"[{'id': 17058, 'name': 'Beer Store', 'icon': {'prefix': 'https://ss3.4sqi.net/img/categories_v2/nightlife/beergarden_', 'suffix': '.png'}}]",132,43.665413,-79.403461,720 Spadina Ave
97,The John,"[{'id': 13006, 'name': 'Beer Bar', 'icon': {'prefix': 'https://ss3.4sqi.net/img/categories_v2/nightlife/pub_', 'suffix': '.png'}}]",135,43.65965,-79.437096,1174 Bloor St W
98,Art Gallery of Ontario,"[{'id': 10004, 'name': 'Art Gallery', 'icon': {'prefix': 'https://ss3.4sqi.net/img/categories_v2/arts_entertainment/artgallery_', 'suffix': '.png'}}]",136,43.653538,-79.392624,317 Dundas St W
99,Nunu Ethopian Fusion,"[{'id': 13143, 'name': 'Ethiopian Restaurant', 'icon': {'prefix': 'https://ss3.4sqi.net/img/categories_v2/food/ethiopian_', 'suffix': '.png'}}]",137,43.642965,-79.425727,1178 Queen St W
100,The Distillery Historic District,"[{'id': 16026, 'name': 'Monument', 'icon': {'prefix': 'https://ss3.4sqi.net/img/categories_v2/building/government_monument_', 'suffix': '.png'}}]",139,43.6502,-79.359334,55 Mill St
101,Beer Store,"[{'id': 17058, 'name': 'Beer Store', 'icon': {'prefix': 'https://ss3.4sqi.net/img/categories_v2/nightlife/beergarden_', 'suffix': '.png'}}]",145,43.657739,-79.357538,28 River St
102,Kensington Brewing Co,"[{'id': 13003, 'name': 'Bar', 'icon': {'prefix': 'https://ss3.4sqi.net/img/categories_v2/nightlife/pub_', 'suffix': '.png'}}, {'id': 13029, 'name': 'Brewery', 'icon': {'prefix': 'https://ss3.4sqi.net/img/categories_v2/food/brewery_', 'suffix': '.png'}}, {'id': 13065, 'name': 'Restaurant', 'icon': {'prefix': 'https://ss3.4sqi.net/img/categories_v2/food/default_', 'suffix': '.png'}}]",146,43.656389,-79.402488,156 Augusta Ave
103,Charlesbourg Brewing Co,"[{'id': 13029, 'name': 'Brewery', 'icon': {'prefix': 'https://ss3.4sqi.net/img/categories_v2/food/brewery_', 'suffix': '.png'}}]",146,43.65002,-79.379641,1234 Consumers Dr
104,The Alpine,"[{'id': 13006, 'name': 'Beer Bar', 'icon': {'prefix': 'https://ss3.4sqi.net/img/categories_v2/nightlife/pub_', 'suffix': '.png'}}, {'id': 13065, 'name': 'Restaurant', 'icon': {'prefix': 'https://ss3.4sqi.net/img/categories_v2/food/default_', 'suffix': '.png'}}]",149,43.665615,-79.465318,2872 Dundas St W
105,The Craft Brasserie & Grille,"[{'id': 13006, 'name': 'Beer Bar', 'icon': {'prefix': 'https://ss3.4sqi.net/img/categories_v2/nightlife/pub_', 'suffix': '.png'}}, {'id': 13065, 'name': 'Restaurant', 'icon': {'prefix': 'https://ss3.4sqi.net/img/categories_v2/food/default_', 'suffix': '.png'}}]",150,43.639346,-79.420708,107 Atlantic Ave
106,Bevi Birra,"[{'id': 17058, 'name': 'Beer Store', 'icon': {'prefix': 'https://ss3.4sqi.net/img/categories_v2/nightlife/beergarden_', 'suffix': '.png'}}]",151,43.66563,-79.472008,3072 Dundas St W
107,Indie Alehouse,"[{'id': 13003, 'name': 'Bar', 'icon': {'prefix': 'https://ss3.4sqi.net/img/categories_v2/nightlife/pub_', 'suffix': '.png'}}, {'id': 13029, 'name': 'Brewery', 'icon': {'prefix': 'https://ss3.4sqi.net/img/categories_v2/food/brewery_', 'suffix': '.png'}}, {'id': 13057, 'name': 'Gastropub', 'icon': {'prefix': 'https://ss3.4sqi.net/img/categories_v2/food/gastropub_', 'suffix': '.png'}}]",153,43.665549,-79.465448,2876 Dundas St W
108,Beer Store,"[{'id': 17058, 'name': 'Beer Store', 'icon': {'prefix': 'https://ss3.4sqi.net/img/categories_v2/nightlife/beergarden_', 'suffix': '.png'}}]",155,43.655333,-79.407743,452 Bathurst St
109,Beer Store,"[{'id': 17058, 'name': 'Beer Store', 'icon': {'prefix': 'https://ss3.4sqi.net/img/categories_v2/nightlife/beergarden_', 'suffix': '.png'}}]",156,43.673218,-79.415793,500 Dupont St
110,Ice Box,"[{'id': 13003, 'name': 'Bar', 'icon': {'prefix': 'https://ss3.4sqi.net/img/categories_v2/nightlife/pub_', 'suffix': '.png'}}]",160,43.643222,-79.379728,40 Bay St
111,The Beer Store,"[{'id': 17058, 'name': 'Beer Store', 'icon': {'prefix': 'https://ss3.4sqi.net/img/categories_v2/nightlife/beergarden_', 'suffix': '.png'}}]",163,43.656927,-79.434415,900 Dufferin St
112,C'est What,"[{'id': 13006, 'name': 'Beer Bar', 'icon': {'prefix': 'https://ss3.4sqi.net/img/categories_v2/nightlife/pub_', 'suffix': '.png'}}, {'id': 13049, 'name': 'Diner', 'icon': {'prefix': 'https://ss3.4sqi.net/img/categories_v2/food/diner_', 'suffix': '.png'}}, {'id': 13057, 'name': 'Gastropub', 'icon': {'prefix': 'https://ss3.4sqi.net/img/categories_v2/food/gastropub_', 'suffix': '.png'}}]",167,43.648393,-79.373445,67 Front St E
113,Foundation Bar,"[{'id': 13029, 'name': 'Brewery', 'icon': {'prefix': 'https://ss3.4sqi.net/img/categories_v2/food/brewery_', 'suffix': '.png'}}]",169,43.652664,-79.380342,14 W Queen St
114,Beer Store,"[{'id': 17058, 'name': 'Beer Store', 'icon': {'prefix': 'https://ss3.4sqi.net/img/categories_v2/nightlife/beergarden_', 'suffix': '.png'}}]",170,43.692174,-79.28627,3130 Danforth Ave
115,Old York Bar & Grill,"[{'id': 13003, 'name': 'Bar', 'icon': {'prefix': 'https://ss3.4sqi.net/img/categories_v2/nightlife/pub_', 'suffix': '.png'}}, {'id': 13031, 'name': 'Burger Joint', 'icon': {'prefix': 'https://ss3.4sqi.net/img/categories_v2/food/burger_', 'suffix': '.png'}}, {'id': 13068, 'name': 'American Restaurant', 'icon': {'prefix': 'https://ss3.4sqi.net/img/categories_v2/food/default_', 'suffix': '.png'}}]",170,43.641897,-79.406486,167 Niagara St
116,Annex Brew Co,"[{'id': 13029, 'name': 'Brewery', 'icon': {'prefix': 'https://ss3.4sqi.net/img/categories_v2/food/brewery_', 'suffix': '.png'}}]",177,43.665362,-79.418044,422 Clinton St
117,Amsterdam BrewHouse,"[{'id': 13029, 'name': 'Brewery', 'icon': {'prefix': 'https://ss3.4sqi.net/img/categories_v2/food/brewery_', 'suffix': '.png'}}, {'id': 17058, 'name': 'Beer Store', 'icon': {'prefix': 'https://ss3.4sqi.net/img/categories_v2/nightlife/beergarden_', 'suffix': '.png'}}]",177,43.63797,-79.384828,245 Queens Quay W S
118,FastBrewing & WineMaking,"[{'id': 13029, 'name': 'Brewery', 'icon': {'prefix': 'https://ss3.4sqi.net/img/categories_v2/food/brewery_', 'suffix': '.png'}}]",177,43.639221,-79.386149,264 Queens Quay W
119,Ascari Enoteca,"[{'id': 13236, 'name': 'Italian Restaurant', 'icon': {'prefix': 'https://ss3.4sqi.net/img/categories_v2/food/italian_', 'suffix': '.png'}}]",192,43.661973,-79.335438,1111 Queen St E
120,Rorschach Brewing,"[{'id': 13029, 'name': 'Brewery', 'icon': {'prefix': 'https://ss3.4sqi.net/img/categories_v2/food/brewery_', 'suffix': '.png'}}, {'id': 13065, 'name': 'Restaurant', 'icon': {'prefix': 'https://ss3.4sqi.net/img/categories_v2/food/default_', 'suffix': '.png'}}]",194,43.663372,-79.319902,1001 Eastern Ave
121,Granite Brewery,"[{'id': 13003, 'name': 'Bar', 'icon': {'prefix': 'https://ss3.4sqi.net/img/categories_v2/nightlife/pub_', 'suffix': '.png'}}, {'id': 13029, 'name': 'Brewery', 'icon': {'prefix': 'https://ss3.4sqi.net/img/categories_v2/food/brewery_', 'suffix': '.png'}}, {'id': 13068, 'name': 'American Restaurant', 'icon': {'prefix': 'https://ss3.4sqi.net/img/categories_v2/food/default_', 'suffix': '.png'}}]",196,43.707916,-79.389609,245 Eglinton Ave E
122,Sarah's Cafe & Bar,"[{'id': 13034, 'name': 'Café', 'icon': {'prefix': 'https://ss3.4sqi.net/img/categories_v2/food/cafe_', 'suffix': '.png'}}, {'id': 13065, 'name': 'Restaurant', 'icon': {'prefix': 'https://ss3.4sqi.net/img/categories_v2/food/default_', 'suffix': '.png'}}]",199,43.682848,-79.326999,1426 Danforth Ave
123,Gibraltars Rock Brewing Co,"[{'id': 10000, 'name': 'Arts and Entertainment', 'icon': {'prefix': 'https://ss3.4sqi.net/img/categories_v2/arts_entertainment/default_', 'suffix': '.png'}}, {'id': 13003, 'name': 'Bar', 'icon': {'prefix': 'https://ss3.4sqi.net/img/categories_v2/nightlife/pub_', 'suffix': '.png'}}, {'id': 13029, 'name': 'Brewery', 'icon': {'prefix': 'https://ss3.4sqi.net/img/categories_v2/food/brewery_', 'suffix': '.png'}}]",200,43.708263,-79.389477,245 Eglinton Ave E
124,The Beer Store,"[{'id': 17058, 'name': 'Beer Store', 'icon': {'prefix': 'https://ss3.4sqi.net/img/categories_v2/nightlife/beergarden_', 'suffix': '.png'}}]",201,43.681252,-79.332781,1177 Danforth Ave
125,Get Well,"[{'id': 13003, 'name': 'Bar', 'icon': {'prefix': 'https://ss3.4sqi.net/img/categories_v2/nightlife/pub_', 'suffix': '.png'}}, {'id': 13065, 'name': 'Restaurant', 'icon': {'prefix': 'https://ss3.4sqi.net/img/categories_v2/food/default_', 'suffix': '.png'}}]",203,43.649249,-79.421918,1181 Dundas St W
126,The Beer Store,"[{'id': 17058, 'name': 'Beer Store', 'icon': {'prefix': 'https://ss3.4sqi.net/img/categories_v2/nightlife/beergarden_', 'suffix': '.png'}}]",204,43.654318,-79.449379,Dundas St W
127,Toronto Brewing,"[{'id': 17058, 'name': 'Beer Store', 'icon': {'prefix': 'https://ss3.4sqi.net/img/categories_v2/nightlife/beergarden_', 'suffix': '.png'}}]",204,43.669458,-79.438108,211 Geary Ave
128,Labatt Breweries of Canada,"[{'id': 13029, 'name': 'Brewery', 'icon': {'prefix': 'https://ss3.4sqi.net/img/categories_v2/food/brewery_', 'suffix': '.png'}}]",205,43.63884,-79.380573,207 Queen's Quay W
129,"Bottle Delivery Toronto - Beer, Liquor, Wine","[{'id': 17058, 'name': 'Beer Store', 'icon': {'prefix': 'https://ss3.4sqi.net/img/categories_v2/nightlife/beergarden_', 'suffix': '.png'}}, {'id': 17076, 'name': 'Liquor Store', 'icon': {'prefix': 'https://ss3.4sqi.net/img/categories_v2/shops/food_liquor_', 'suffix': '.png'}}]",205,43.681193,-79.332819,1177 Danforth Ave
130,Billye Madden,"[{'id': 13029, 'name': 'Brewery', 'icon': {'prefix': 'https://ss3.4sqi.net/img/categories_v2/food/brewery_', 'suffix': '.png'}}]",206,43.662055,-79.328064,818 Eastern Ave
131,Beer Store,"[{'id': 17058, 'name': 'Beer Store', 'icon': {'prefix': 'https://ss3.4sqi.net/img/categories_v2/nightlife/beergarden_', 'suffix': '.png'}}]",207,43.693634,-79.316772,1270 Woodbine Ave
132,Harbord House,"[{'id': 13003, 'name': 'Bar', 'icon': {'prefix': 'https://ss3.4sqi.net/img/categories_v2/nightlife/pub_', 'suffix': '.png'}}, {'id': 13057, 'name': 'Gastropub', 'icon': {'prefix': 'https://ss3.4sqi.net/img/categories_v2/food/gastropub_', 'suffix': '.png'}}]",207,43.66245,-79.405607,150 Harbord St
133,Something in the Water Brewing Co,"[{'id': 13029, 'name': 'Brewery', 'icon': {'prefix': 'https://ss3.4sqi.net/img/categories_v2/food/brewery_', 'suffix': '.png'}}]",209,43.637859,-79.38481,245 Queens Quay W
134,Tommy's Wine Bar,"[{'id': 13034, 'name': 'Café', 'icon': {'prefix': 'https://ss3.4sqi.net/img/categories_v2/food/cafe_', 'suffix': '.png'}}]",217,43.651055,-79.445629,1977 Dundas St W
135,Beer Store,"[{'id': 17058, 'name': 'Beer Store', 'icon': {'prefix': 'https://ss3.4sqi.net/img/categories_v2/nightlife/beergarden_', 'suffix': '.png'}}]",221,43.666282,-79.369041,534 Parliament St
136,B&N Brewing Co,"[{'id': 13029, 'name': 'Brewery', 'icon': {'prefix': 'https://ss3.4sqi.net/img/categories_v2/food/brewery_', 'suffix': '.png'}}]",221,43.661063,-79.477632,105 Gilmour Ave
137,Her Father's Cider Bar + Kitchen,"[{'id': 13006, 'name': 'Beer Bar', 'icon': {'prefix': 'https://ss3.4sqi.net/img/categories_v2/nightlife/pub_', 'suffix': '.png'}}, {'id': 13065, 'name': 'Restaurant', 'icon': {'prefix': 'https://ss3.4sqi.net/img/categories_v2/food/default_', 'suffix': '.png'}}]",223,43.662413,-79.404572,119 Harbord St
138,Village Idiot Pub,"[{'id': 13016, 'name': 'Lounge', 'icon': {'prefix': 'https://ss3.4sqi.net/img/categories_v2/nightlife/default_', 'suffix': '.png'}}, {'id': 13049, 'name': 'Diner', 'icon': {'prefix': 'https://ss3.4sqi.net/img/categories_v2/food/diner_', 'suffix': '.png'}}, {'id': 13068, 'name': 'American Restaurant', 'icon': {'prefix': 'https://ss3.4sqi.net/img/categories_v2/food/default_', 'suffix': '.png'}}]",228,43.654366,-79.391693,126 Mc Caul St
139,The Dizzy,"[{'id': 13049, 'name': 'Diner', 'icon': {'prefix': 'https://ss3.4sqi.net/img/categories_v2/food/diner_', 'suffix': '.png'}}, {'id': 13057, 'name': 'Gastropub', 'icon': {'prefix': 'https://ss3.4sqi.net/img/categories_v2/food/gastropub_', 'suffix': '.png'}}, {'id': 13388, 'name': 'Wings Joint', 'icon': {'prefix': 'https://ss3.4sqi.net/img/categories_v2/food/wings_', 'suffix': '.png'}}]",231,43.648296,-79.449581,305A Roncesvalles Ave
140,High Park Brewery,"[{'id': 13029, 'name': 'Brewery', 'icon': {'prefix': 'https://ss3.4sqi.net/img/categories_v2/food/brewery_', 'suffix': '.png'}}]",231,43.66991,-79.483315,839 Runnymede Rd
141,Wvrst Union Station,"[{'id': 13006, 'name': 'Beer Bar', 'icon': {'prefix': 'https://ss3.4sqi.net/img/categories_v2/nightlife/pub_', 'suffix': '.png'}}]",236,43.644898,-79.381397,65 Front St W
142,Crooked Cue,"[{'id': 10045, 'name': 'Pool Hall', 'icon': {'prefix': 'https://ss3.4sqi.net/img/categories_v2/arts_entertainment/billiards_', 'suffix': '.png'}}, {'id': 13016, 'name': 'Lounge', 'icon': {'prefix': 'https://ss3.4sqi.net/img/categories_v2/nightlife/default_', 'suffix': '.png'}}, {'id': 13065, 'name': 'Restaurant', 'icon': {'prefix': 'https://ss3.4sqi.net/img/categories_v2/food/default_', 'suffix': '.png'}}]",239,43.64717,-79.513118,3056 Bloor St W
143,Black Lab Brewing,"[{'id': 13029, 'name': 'Brewery', 'icon': {'prefix': 'https://ss3.4sqi.net/img/categories_v2/food/brewery_', 'suffix': '.png'}}]",248,43.661871,-79.329063,818 Eastern Ave
144,Roundhouse Park,"[{'id': 16032, 'name': 'Park', 'icon': {'prefix': 'https://ss3.4sqi.net/img/categories_v2/parks_outdoors/park_', 'suffix': '.png'}}]",252,43.641748,-79.38613,255 Bremner Blvd
145,Pour House Irish Pub,"[{'id': 13018, 'name': 'Pub', 'icon': {'prefix': 'https://ss3.4sqi.net/img/categories_v2/nightlife/pub_', 'suffix': '.png'}}, {'id': 13065, 'name': 'Restaurant', 'icon': {'prefix': 'https://ss3.4sqi.net/img/categories_v2/food/default_', 'suffix': '.png'}}]",254,43.67566,-79.403834,182 Dupont St
146,The Loose Moose Tap & Grill,"[{'id': 13007, 'name': 'Beer Garden', 'icon': {'prefix': 'https://ss3.4sqi.net/img/categories_v2/nightlife/beergarden_', 'suffix': '.png'}}, {'id': 13026, 'name': 'BBQ Joint', 'icon': {'prefix': 'https://ss3.4sqi.net/img/categories_v2/food/bbqalt_', 'suffix': '.png'}}, {'id': 13383, 'name': 'Steakhouse', 'icon': {'prefix': 'https://ss3.4sqi.net/img/categories_v2/food/steakhouse_', 'suffix': '.png'}}]",273,43.64533,-79.383943,146 Front St W
147,The Greater Good Bar,"[{'id': 13003, 'name': 'Bar', 'icon': {'prefix': 'https://ss3.4sqi.net/img/categories_v2/nightlife/pub_', 'suffix': '.png'}}, {'id': 13064, 'name': 'Pizzeria', 'icon': {'prefix': 'https://ss3.4sqi.net/img/categories_v2/food/pizza_', 'suffix': '.png'}}]",276,43.669324,-79.439163,229 Geary Ave
148,Dirt Floor Brewing,"[{'id': 13029, 'name': 'Brewery', 'icon': {'prefix': 'https://ss3.4sqi.net/img/categories_v2/food/brewery_', 'suffix': '.png'}}]",282,43.693714,-79.267095,30 Phenix Dr
149,True History Brewing,"[{'id': 13029, 'name': 'Brewery', 'icon': {'prefix': 'https://ss3.4sqi.net/img/categories_v2/food/brewery_', 'suffix': '.png'}}]",291,43.678423,-79.442213,1154 St Clair Ave W
150,Beer Store,"[{'id': 17058, 'name': 'Beer Store', 'icon': {'prefix': 'https://ss3.4sqi.net/img/categories_v2/nightlife/beergarden_', 'suffix': '.png'}}]",293,43.661466,-79.370427,227 Gerrard St E
151,Brass Taps Pizza Pub,"[{'id': 13016, 'name': 'Lounge', 'icon': {'prefix': 'https://ss3.4sqi.net/img/categories_v2/nightlife/default_', 'suffix': '.png'}}, {'id': 13018, 'name': 'Pub', 'icon': {'prefix': 'https://ss3.4sqi.net/img/categories_v2/nightlife/pub_', 'suffix': '.png'}}, {'id': 13064, 'name': 'Pizzeria', 'icon': {'prefix': 'https://ss3.4sqi.net/img/categories_v2/food/pizza_', 'suffix': '.png'}}]",296,43.653765,-79.426194,934 College St
152,Saulter Street Brewery,"[{'id': 13003, 'name': 'Bar', 'icon': {'prefix': 'https://ss3.4sqi.net/img/categories_v2/nightlife/pub_', 'suffix': '.png'}}, {'id': 13029, 'name': 'Brewery', 'icon': {'prefix': 'https://ss3.4sqi.net/img/categories_v2/food/brewery_', 'suffix': '.png'}}, {'id': 13065, 'name': 'Restaurant', 'icon': {'prefix': 'https://ss3.4sqi.net/img/categories_v2/food/default_', 'suffix': '.png'}}]",303,43.658488,-79.346389,31 Saulter St
153,Beer Store,"[{'id': 17058, 'name': 'Beer Store', 'icon': {'prefix': 'https://ss3.4sqi.net/img/categories_v2/nightlife/beergarden_', 'suffix': '.png'}}]",310,43.71356,-79.272265,3431 St Clair Ave E
154,The Monk's Kettle,"[{'id': 13057, 'name': 'Gastropub', 'icon': {'prefix': 'https://ss3.4sqi.net/img/categories_v2/food/gastropub_', 'suffix': '.png'}}]",311,43.646678,-79.513693,3073 Bloor St W
155,The Feathers Pub,"[{'id': 13016, 'name': 'Lounge', 'icon': {'prefix': 'https://ss3.4sqi.net/img/categories_v2/nightlife/default_', 'suffix': '.png'}}, {'id': 13018, 'name': 'Pub', 'icon': {'prefix': 'https://ss3.4sqi.net/img/categories_v2/nightlife/pub_', 'suffix': '.png'}}, {'id': 13142, 'name': 'English Restaurant', 'icon': {'prefix': 'https://ss3.4sqi.net/img/categories_v2/food/default_', 'suffix': '.png'}}]",318,43.680635,-79.287451,962 Kingston Rd
156,Laylow Beer Bar and Eatery,"[{'id': 13006, 'name': 'Beer Bar', 'icon': {'prefix': 'https://ss3.4sqi.net/img/categories_v2/nightlife/pub_', 'suffix': '.png'}}, {'id': 13029, 'name': 'Brewery', 'icon': {'prefix': 'https://ss3.4sqi.net/img/categories_v2/food/brewery_', 'suffix': '.png'}}, {'id': 13065, 'name': 'Restaurant', 'icon': {'prefix': 'https://ss3.4sqi.net/img/categories_v2/food/default_', 'suffix': '.png'}}]",324,43.652422,-79.433833,1144 College St
157,4th and 7,"[{'id': 17058, 'name': 'Beer Store', 'icon': {'prefix': 'https://ss3.4sqi.net/img/categories_v2/nightlife/beergarden_', 'suffix': '.png'}}]",342,43.653247,-79.42714,967 College St
158,Society Clubhouse,"[{'id': 13006, 'name': 'Beer Bar', 'icon': {'prefix': 'https://ss3.4sqi.net/img/categories_v2/nightlife/pub_', 'suffix': '.png'}}]",344,43.653233,-79.427324,967 College St
159,Bellwoods Brewery,"[{'id': 13003, 'name': 'Bar', 'icon': {'prefix': 'https://ss3.4sqi.net/img/categories_v2/nightlife/pub_', 'suffix': '.png'}}, {'id': 13029, 'name': 'Brewery', 'icon': {'prefix': 'https://ss3.4sqi.net/img/categories_v2/food/brewery_', 'suffix': '.png'}}, {'id': 13065, 'name': 'Restaurant', 'icon': {'prefix': 'https://ss3.4sqi.net/img/categories_v2/food/default_', 'suffix': '.png'}}]",348,43.647131,-79.420177,124 Ossington Ave
160,Bellwoods Brewery Bottle Shop,"[{'id': 17058, 'name': 'Beer Store', 'icon': {'prefix': 'https://ss3.4sqi.net/img/categories_v2/nightlife/beergarden_', 'suffix': '.png'}}]",351,43.647124,-79.420269,126 Ossington Ave
161,Beaches Brewing Co,"[{'id': 13029, 'name': 'Brewery', 'icon': {'prefix': 'https://ss3.4sqi.net/img/categories_v2/food/brewery_', 'suffix': '.png'}}]",353,43.669351,-79.302327,1953 Queen St E
162,Beer Store,"[{'id': 17058, 'name': 'Beer Store', 'icon': {'prefix': 'https://ss3.4sqi.net/img/categories_v2/nightlife/beergarden_', 'suffix': '.png'}}]",368,43.657452,-79.345196,400 Eastern Ave
163,Nickel 9 Distillery,"[{'id': 13029, 'name': 'Brewery', 'icon': {'prefix': 'https://ss3.4sqi.net/img/categories_v2/food/brewery_', 'suffix': '.png'}}, {'id': 13050, 'name': 'Distillery', 'icon': {'prefix': 'https://ss3.4sqi.net/img/categories_v2/food/brewery_', 'suffix': '.png'}}, {'id': 13065, 'name': 'Restaurant', 'icon': {'prefix': 'https://ss3.4sqi.net/img/categories_v2/food/default_', 'suffix': '.png'}}]",392,43.67034,-79.464442,90 Cawthra Ave
164,Trios Bistro,"[{'id': 13027, 'name': 'Bistro', 'icon': {'prefix': 'https://ss3.4sqi.net/img/categories_v2/food/default_', 'suffix': '.png'}}, {'id': 13148, 'name': 'French Restaurant', 'icon': {'prefix': 'https://ss3.4sqi.net/img/categories_v2/food/french_', 'suffix': '.png'}}]",420,43.654605,-79.382988,525 Bay St
165,Black Creek Pioneer Village,"[{'id': 10027, 'name': 'Museum', 'icon': {'prefix': 'https://ss3.4sqi.net/img/categories_v2/arts_entertainment/museum_', 'suffix': '.png'}}]",420,43.77393,-79.51536,1000 Murray Ross Pky
166,Left Field Brewery,"[{'id': 13029, 'name': 'Brewery', 'icon': {'prefix': 'https://ss3.4sqi.net/img/categories_v2/food/brewery_', 'suffix': '.png'}}]",421,43.673789,-79.330385,36 Wagstaff Dr
167,Beer Store,"[{'id': 17058, 'name': 'Beer Store', 'icon': {'prefix': 'https://ss3.4sqi.net/img/categories_v2/nightlife/beergarden_', 'suffix': '.png'}}]",434,43.694295,-79.343453,380 Donlands Ave
168,Beer Store,"[{'id': 17058, 'name': 'Beer Store', 'icon': {'prefix': 'https://ss3.4sqi.net/img/categories_v2/nightlife/beergarden_', 'suffix': '.png'}}]",446,43.656738,-79.380663,10 Dundas St E
169,Dong Slayer Hq,"[{'id': 13029, 'name': 'Brewery', 'icon': {'prefix': 'https://ss3.4sqi.net/img/categories_v2/food/brewery_', 'suffix': '.png'}}]",452,43.665823,-79.494628,3635 Dundas St W
170,Always - Dial a Bottle Delivery - Toronto,"[{'id': 11163, 'name': 'Shipping, Freight, and Material Transportation Service', 'icon': {'prefix': 'https://ss3.4sqi.net/img/categories_v2/shops/default_', 'suffix': '.png'}}, {'id': 17058, 'name': 'Beer Store', 'icon': {'prefix': 'https://ss3.4sqi.net/img/categories_v2/nightlife/beergarden_', 'suffix': '.png'}}]",459,43.679714,-79.31046,718 Woodbine Ave
171,Beer Store,"[{'id': 17058, 'name': 'Beer Store', 'icon': {'prefix': 'https://ss3.4sqi.net/img/categories_v2/nightlife/beergarden_', 'suffix': '.png'}}]",474,43.75653,-79.519296,2005 Finch Ave W
172,Black Creek Historic Brewery,"[{'id': 13029, 'name': 'Brewery', 'icon': {'prefix': 'https://ss3.4sqi.net/img/categories_v2/food/brewery_', 'suffix': '.png'}}]",494,43.774968,-79.516993,1000 Murray Ross Pky
173,Beer Store,"[{'id': 17058, 'name': 'Beer Store', 'icon': {'prefix': 'https://ss3.4sqi.net/img/categories_v2/nightlife/beergarden_', 'suffix': '.png'}}]",511,43.780181,-79.137602,5544 Lawrence Ave E
174,Amsterdam Barrel House,"[{'id': 13029, 'name': 'Brewery', 'icon': {'prefix': 'https://ss3.4sqi.net/img/categories_v2/food/brewery_', 'suffix': '.png'}}, {'id': 13065, 'name': 'Restaurant', 'icon': {'prefix': 'https://ss3.4sqi.net/img/categories_v2/food/default_', 'suffix': '.png'}}]",524,43.70604,-79.361227,87 Laird Dr
175,Toronto Brewing Company Inc,"[{'id': 13003, 'name': 'Bar', 'icon': {'prefix': 'https://ss3.4sqi.net/img/categories_v2/nightlife/pub_', 'suffix': '.png'}}, {'id': 13029, 'name': 'Brewery', 'icon': {'prefix': 'https://ss3.4sqi.net/img/categories_v2/food/brewery_', 'suffix': '.png'}}]",576,43.756256,-79.474077,3701 Chesswood Dr
176,The Beer Store,"[{'id': 17058, 'name': 'Beer Store', 'icon': {'prefix': 'https://ss3.4sqi.net/img/categories_v2/nightlife/beergarden_', 'suffix': '.png'}}]",581,43.594475,-79.534333,3580 Lake Shore Blvd W
177,Lcbo,"[{'id': 17076, 'name': 'Liquor Store', 'icon': {'prefix': 'https://ss3.4sqi.net/img/categories_v2/shops/food_liquor_', 'suffix': '.png'}}]",584,43.779592,-79.138777,5508 Lawrence Ave E
178,Long Branch Brewery,"[{'id': 13029, 'name': 'Brewery', 'icon': {'prefix': 'https://ss3.4sqi.net/img/categories_v2/food/brewery_', 'suffix': '.png'}}]",586,43.595944,-79.534198,115 Long Branch Ave
179,Walrus Pub & Beer Hall,"[{'id': 13018, 'name': 'Pub', 'icon': {'prefix': 'https://ss3.4sqi.net/img/categories_v2/nightlife/pub_', 'suffix': '.png'}}, {'id': 13065, 'name': 'Restaurant', 'icon': {'prefix': 'https://ss3.4sqi.net/img/categories_v2/food/default_', 'suffix': '.png'}}]",589,43.6475,-79.379567,187 Bay St
180,CN Tower,"[{'id': 16007, 'name': 'Structure', 'icon': {'prefix': 'https://ss3.4sqi.net/img/categories_v2/building/default_', 'suffix': '.png'}}]",598,43.642593,-79.38709,301 Front St W
181,Beer Store,"[{'id': 17058, 'name': 'Beer Store', 'icon': {'prefix': 'https://ss3.4sqi.net/img/categories_v2/nightlife/beergarden_', 'suffix': '.png'}}]",599,43.70582,-79.360396,89 Laird Dr
182,Corks Beer & Wine Bars,"[{'id': 13025, 'name': 'Wine Bar', 'icon': {'prefix': 'https://ss3.4sqi.net/img/categories_v2/food/winery_', 'suffix': '.png'}}, {'id': 13065, 'name': 'Restaurant', 'icon': {'prefix': 'https://ss3.4sqi.net/img/categories_v2/food/default_', 'suffix': '.png'}}]",644,43.706605,-79.359632,93 Laird Dr
183,Junction Craft Brewing,"[{'id': 13003, 'name': 'Bar', 'icon': {'prefix': 'https://ss3.4sqi.net/img/categories_v2/nightlife/pub_', 'suffix': '.png'}}, {'id': 13029, 'name': 'Brewery', 'icon': {'prefix': 'https://ss3.4sqi.net/img/categories_v2/food/brewery_', 'suffix': '.png'}}, {'id': 13065, 'name': 'Restaurant', 'icon': {'prefix': 'https://ss3.4sqi.net/img/categories_v2/food/default_', 'suffix': '.png'}}]",674,43.673176,-79.478603,150 Symes Rd
184,Shacklands Brewing Co,"[{'id': 13003, 'name': 'Bar', 'icon': {'prefix': 'https://ss3.4sqi.net/img/categories_v2/nightlife/pub_', 'suffix': '.png'}}, {'id': 13029, 'name': 'Brewery', 'icon': {'prefix': 'https://ss3.4sqi.net/img/categories_v2/food/brewery_', 'suffix': '.png'}}]",682,43.672528,-79.479013,100 Symes Rd
185,Rainhard Brewing Co,"[{'id': 13006, 'name': 'Beer Bar', 'icon': {'prefix': 'https://ss3.4sqi.net/img/categories_v2/nightlife/pub_', 'suffix': '.png'}}, {'id': 13029, 'name': 'Brewery', 'icon': {'prefix': 'https://ss3.4sqi.net/img/categories_v2/food/brewery_', 'suffix': '.png'}}]",687,43.672607,-79.478699,100 Symes Rd
186,Shacklands Brewing,"[{'id': 13029, 'name': 'Brewery', 'icon': {'prefix': 'https://ss3.4sqi.net/img/categories_v2/food/brewery_', 'suffix': '.png'}}]",688,43.672875,-79.478882,100 Symes Rd
187,St. Mary Axe,"[{'id': 13029, 'name': 'Brewery', 'icon': {'prefix': 'https://ss3.4sqi.net/img/categories_v2/food/brewery_', 'suffix': '.png'}}]",714,43.673076,-79.479195,150 Symes Rd
188,Muddy York Brewing Co,"[{'id': 13003, 'name': 'Bar', 'icon': {'prefix': 'https://ss3.4sqi.net/img/categories_v2/nightlife/pub_', 'suffix': '.png'}}, {'id': 13029, 'name': 'Brewery', 'icon': {'prefix': 'https://ss3.4sqi.net/img/categories_v2/food/brewery_', 'suffix': '.png'}}, {'id': 13065, 'name': 'Restaurant', 'icon': {'prefix': 'https://ss3.4sqi.net/img/categories_v2/food/default_', 'suffix': '.png'}}]",752,43.712438,-79.312203,22 Cranfield Rd
189,Beer Store,"[{'id': 17058, 'name': 'Beer Store', 'icon': {'prefix': 'https://ss3.4sqi.net/img/categories_v2/nightlife/beergarden_', 'suffix': '.png'}}]",770,43.679986,-79.469971,1515 Keele St
190,Amsterdam Brewery,"[{'id': 13029, 'name': 'Brewery', 'icon': {'prefix': 'https://ss3.4sqi.net/img/categories_v2/food/brewery_', 'suffix': '.png'}}]",777,43.706394,-79.357118,45 Esandar Dr
191,Amsterdam Brewing Co,"[{'id': 13029, 'name': 'Brewery', 'icon': {'prefix': 'https://ss3.4sqi.net/img/categories_v2/food/brewery_', 'suffix': '.png'}}, {'id': 13065, 'name': 'Restaurant', 'icon': {'prefix': 'https://ss3.4sqi.net/img/categories_v2/food/default_', 'suffix': '.png'}}]",797,43.706897,-79.357151,45 Esandar Dr
192,Brunswick Bier Works,"[{'id': 13029, 'name': 'Brewery', 'icon': {'prefix': 'https://ss3.4sqi.net/img/categories_v2/food/brewery_', 'suffix': '.png'}}, {'id': 13065, 'name': 'Restaurant', 'icon': {'prefix': 'https://ss3.4sqi.net/img/categories_v2/food/default_', 'suffix': '.png'}}]",799,43.710282,-79.317199,25 Curity Ave
193,The Beer Store,"[{'id': 17058, 'name': 'Beer Store', 'icon': {'prefix': 'https://ss3.4sqi.net/img/categories_v2/nightlife/beergarden_', 'suffix': '.png'}}]",809,43.63851,-79.38898,3250 Queens Quay W
194,Scotiabank Arena,"[{'id': 10051, 'name': 'Stadium', 'icon': {'prefix': 'https://ss3.4sqi.net/img/categories_v2/arts_entertainment/stadium_', 'suffix': '.png'}}]",830,43.643485,-79.379209,50 Bay St
195,TORONTO DIAL a BOTTLE - Beer Liquor Wine Delivery,"[{'id': 17076, 'name': 'Liquor Store', 'icon': {'prefix': 'https://ss3.4sqi.net/img/categories_v2/shops/food_liquor_', 'suffix': '.png'}}]",848,43.654334,-79.398327,23 Lascelles Blvd
196,TilesInspired,"[{'id': 11079, 'name': 'Carpet and Flooring Contractor', 'icon': {'prefix': 'https://ss3.4sqi.net/img/categories_v2/shops/realestate_', 'suffix': '.png'}}, {'id': 13050, 'name': 'Distillery', 'icon': {'prefix': 'https://ss3.4sqi.net/img/categories_v2/food/brewery_', 'suffix': '.png'}}]",877,43.734701,-79.241256,80 Barbados Blvd
197,Great Lakes Brewing Company Inc,"[{'id': 13006, 'name': 'Beer Bar', 'icon': {'prefix': 'https://ss3.4sqi.net/img/categories_v2/nightlife/pub_', 'suffix': '.png'}}, {'id': 13029, 'name': 'Brewery', 'icon': {'prefix': 'https://ss3.4sqi.net/img/categories_v2/food/brewery_', 'suffix': '.png'}}]",887,43.62301,-79.505047,30 Queen Elizabeth Blvd
198,Indie Alehouse Production Facility,"[{'id': 13029, 'name': 'Brewery', 'icon': {'prefix': 'https://ss3.4sqi.net/img/categories_v2/food/brewery_', 'suffix': '.png'}}]",954,43.607706,-79.517004,215 Horner Ave
199,Soda Centre & Home Brewer's Retail,"[{'id': 17058, 'name': 'Beer Store', 'icon': {'prefix': 'https://ss3.4sqi.net/img/categories_v2/nightlife/beergarden_', 'suffix': '.png'}}, {'id': 17076, 'name': 'Liquor Store', 'icon': {'prefix': 'https://ss3.4sqi.net/img/categories_v2/shops/food_liquor_', 'suffix': '.png'}}, {'id': 17080, 'name': 'Wine Store', 'icon': {'prefix': 'https://ss3.4sqi.net/img/categories_v2/shops/food_wineshop_', 'suffix': '.png'}}]",958,43.758222,-79.198781,4180 Kingston Rd
200,Marcheleos Marketplace,"[{'id': 17069, 'name': 'Grocery Store', 'icon': {'prefix': 'https://ss3.4sqi.net/img/categories_v2/shops/food_grocery_', 'suffix': '.png'}}]",994,43.727444,-79.326136,150 Wynford Dr
201,Beer Store,"[{'id': 17058, 'name': 'Beer Store', 'icon': {'prefix': 'https://ss3.4sqi.net/img/categories_v2/nightlife/beergarden_', 'suffix': '.png'}}]",5882,43.663492,-79.328384,761 Queen St W
